[{"OBJECT_NAME":"SITRO-AIS 44","OBJECT_ID":"2024-199P","EPOCH":"2026-03-09T22:00:49.428864","MEAN_MOTION":15.55686039,"ECCENTRICITY":0.000449,"INCLINATION":97.3075,"RA_OF_ASC_NODE":305.0705,"ARG_OF_PERICENTER":282.4122,"MEAN_ANOMALY":77.663,"EPHEMERIS_TYPE":0,"CLASSIFICATION_TYPE":"U","NORAD_CAT_ID":61748,"ELEMENT_SET_NO":999,"REV_AT_EPOCH":12229,"BSTAR":0.00083685162,"MEAN_MOTION_DOT":0.00057776,"MEAN_MOTION_DDOT":0},{"OBJECT_NAME":"STARLINK-36599","OBJECT_ID":"2026-020X","EPOCH":"2026-03-09T22:00:01.999584","MEAN_MOTION":15.61906227,"ECCENTRICITY":0.00011786,"INCLINATION":42.9994,"RA_OF_ASC_NODE":140.289,"ARG_OF_PERICENTER":283.2784,"MEAN_ANOMALY":217.7323,"EPHEMERIS_TYPE":0,"CLASSIFICATION_TYPE":"U","NORAD_CAT_ID":67638,"ELEMENT_SET_NO":999,"REV_AT_EPOCH":604,"BSTAR":-0.02497472,"MEAN_MOTION_DOT":-0.01966241,"MEAN_MOTION_DDOT":0}]
